1 02377U 63014X   09209.60465818  .00000005  00000-0  10000-3 0  9990
2 02377 087.3483 035.1942 0603891 087.5460 279.4377 08.68028366390531
1 02377U 63014X   09210.52658571 +.00000005 +00000-0 +10000-3 0  9993
2 02377 087.3485 035.1052 0603897 086.6571 280.3166 08.68028381390617
1 02377U 63014X   09210.87230806  .00000005  00000-0  10000-3 0  9998
2 02377 087.3491 035.0724 0603917 086.3292 280.6398 08.68028427390643
1 02377U 63014X   09211.56375343 +.00000005 +00000-0 +10000-3 0  9991
2 02377 087.3499 035.0059 0603879 085.6180 281.3402 08.68028571390708
1 02377U 63014X   09212.02471671  .00000005  00000-0  10000-3 0  9994
2 02377 087.3496 034.9615 0603802 085.1494 281.7989 08.68028449390742
1 02377U 63014X   09212.60092140 +.00000005 +00000-0 +10000-3 0  9998
2 02377 087.3498 034.9061 0603768 084.5634 282.3771 08.68028541390793
1 02377U 63014X   09213.40760673  .00000005  00000-0  10000-3 0  9990
2 02377 087.3496 034.8281 0603682 083.7773 283.1487 08.68028479390865
1 02377U 63014X   09213.52284693 +.00000005 +00000-0 +10000-3 0  9996
2 02377 087.3500 034.8169 0603657 083.6690 283.2540 08.68028509390871
1 02377U 63014X   09214.56001318  .00000005  00000-0  10000-3 0  9992
2 02377 087.3497 034.7167 0603537 082.6405 284.2628 08.68028552390969
1 02377U 63014X   09215.82765805  .00000005  00000-0  10000-3 0  9990
2 02377 087.3490 034.5941 0603336 081.3761 285.4947 08.68028727391072
1 02377U 63014X   09215.82765805 +.00000005 +00000-0 +10000-3 0  9990
2 02377 087.3490 034.5941 0603336 081.3761 285.4947 08.68028727391072
1 02377U 63014X   09216.51910127 +.00000005 +00000-0 +10000-3 0  9996
2 02377 087.3492 034.5271 0603186 080.6852 286.1699 08.68028809391136
1 02377U 63014X   09216.98006224  .00000005  00000-0  10000-3 0  9991
2 02377 087.3485 034.4825 0603125 080.2045 286.6331 08.68028667391179
1 02377U 63014X   09217.55626509 +.00000005 +00000-0 +10000-3 0  9999
2 02377 087.3494 034.4268 0602996 079.6457 287.1826 08.68028873391224
1 02377U 63014X   09218.01722504  .00000005  00000-0  10000-3 0  9993
2 02377 087.3489 034.3823 0602902 079.1764 287.6332 08.68028866391260
1 02377U 63014X   09218.59342677 +.00000005 +00000-0 +10000-3 0  9995
2 02377 087.3494 034.3267 0602768 078.6123 288.1830 08.68028907391312
1 02377U 63014X   09219.05438696  .00000005  00000-0  10000-3 0  9994
2 02377 087.3482 034.2816 0602618 078.1288 288.6467 08.68028886391350
1 02377U 63014X   09219.51534825 +.00000005 +00000-0 +10000-3 0  9996
2 02377 087.3490 034.2370 0602479 077.6933 289.0722 08.68028972391399
1 02377U 63014X   09220.55250924  .00000005  00000-0  10000-3 0  9997
2 02377 087.3494 034.1368 0602242 076.6394 290.0909 08.68029122391484
1 02377U 63014X   09221.47442859 +.00000005 +00000-0 +10000-3 0  9999
2 02377 087.3493 034.0478 0602090 075.7040 290.9914 08.68029347391566
1 02377U 63014X   09221.93538780  .00000005  00000-0  10000-3 0  9999
2 02377 087.3483 034.0029 0601889 075.2143 291.4542 08.68028898391609
1 02377U 63014X   09222.51158961 +.00000005 +00000-0 +10000-3 0  9993
2 02377 087.3492 033.9467 0601551 074.7014 291.9585 08.68029175391656
1 02377U 63014X   09222.97254675  .00000005  00000-0  10000-3 0  9992
2 02377 087.3490 033.9020 0601408 074.1972 292.4303 08.68028872391698
1 02377U 63014X   09223.54874782 +.00000005 +00000-0 +10000-3 0  9993
2 02377 087.3493 033.8463 0601313 073.5964 293.0131 08.68028964391744
1 02377U 63014X   09224.00970683  .00000005  00000-0  10000-3 0  9992
2 02377 087.3494 033.8023 0601048 073.1334 293.4539 08.68028937391789
1 02377U 63014X   09224.58590607 +.00000005 +00000-0 +10000-3 0  9999
2 02377 087.3494 033.7466 0600925 072.5440 294.0197 08.68028894391838
1 02377U 63014X   09225.04686486  .00000005  00000-0  10000-3 0  9992
2 02377 087.3492 033.7020 0600687 072.0589 294.4806 08.68028981391878
1 02377U 63014X   09225.50782407 +.00000005 +00000-0 +10000-3 0  9993
2 02377 087.3495 033.6577 0600571 071.5995 294.9217 08.68029049391916
1 02377U 63014X   09226.54498195  .00000005  00000-0  10000-3 0  9996
2 02377 087.3492 033.5578 0600309 070.5419 295.9318 08.68028877392004
1 02377U 63014X   09227.46689873 +.00000005 +00000-0 +10000-3 0  9993
2 02377 087.3495 033.4692 0600132 069.6160 296.8158 08.68029198392086
1 02377U 63014X   09227.92785565  .00000005  00000-0  10000-3 0  9999
2 02377 087.3492 033.4248 0600073 069.1410 297.2626 08.68029118392129
1 02377U 63014X   09228.50405388 +.00000005 +00000-0 +10000-3 0  9996
2 02377 087.3498 033.3691 0599813 068.5986 297.7833 08.68029404392174
1 02377U 63014X   09228.96501008  .00000005  00000-0  10000-3 0  9992
2 02377 087.3484 033.3240 0599415 068.0689 298.2695 08.68028728392217
1 02377U 63014X   09229.54121054 +.00000005 +00000-0 +10000-3 0  9996
2 02377 087.3490 033.2687 0599188 067.4992 298.8221 08.68028892392263
1 02377U 63014X   09230.00216698  .00000005  00000-0  10000-3 0  9998
2 02377 087.3460 033.2221 0598889 066.9846 299.3066 08.68029321392309
1 02377U 63014X   09230.46312346 +.00000005 +00000-0 +10000-3 0  9995
2 02377 087.3476 033.1779 0598320 066.5629 299.7069 08.68029776392343
1 02377U 63014X   09231.50027614  .00000005  00000-0  10000-3 0  9992
2 02377 087.3495 033.0784 0598085 065.5554 300.6602 08.68029993392439
1 02377U 63014X   09232.53742882  .00000005  00000-0  10000-3 0  9997
2 02377 087.3478 032.9773 0597723 064.4101 301.7326 08.68029373392527
1 02377U 63014X   09233.45933967 +.00000005 +00000-0 +10000-3 0  9995
2 02377 087.3480 032.8885 0597308 063.5116 302.5763 08.68029923392602
1 02377U 63014X   09233.92029548  .00000005  00000-0  10000-3 0  9998
2 02377 087.3476 032.8438 0597263 063.0375 303.0200 08.68029799392640
1 02377U 63014X   09234.49649133 +.00000005 +00000-0 +10000-3 0  9999
2 02377 087.3485 032.7880 0596655 062.4693 303.5589 08.68030344392698
1 02377U 63014X   09235.41840066  .00000005  00000-0  10000-3 0  9990
2 02377 087.3489 032.6996 0596549 061.5403 304.4240 08.68030297392770
1 02377U 63014X   09235.53363939 +.00000005 +00000-0 +10000-3 0  9992
2 02377 087.3497 032.6887 0596495 061.4332 304.5238 08.68030275392783
1 02377U 63014X   09236.45555099  .00000005  00000-0  10000-3 0  9994
2 02377 087.3502 032.6006 0596230 060.5011 305.3966 08.68030158392860
1 02377U 63014X   09237.49270122  .00000005  00000-0  10000-3 0  9990
2 02377 087.3462 032.4978 0595336 059.3963 306.4259 08.68030096392957
1 02377U 63014X   09238.52985010  .00000005  00000-0  10000-3 0  9994
2 02377 087.3473 032.3988 0595063 058.3767 307.3769 08.68029984393048
1 02377U 63014X   09239.45176148  .00000005  00000-0  10000-3 0  9991
2 02377 087.3491 032.3110 0593615 057.1965 308.4660 08.68029910393123
1 02377U 63014X   09240.48890982  .00000005  00000-0  10000-3 0  9995
2 02377 087.3506 032.2119 0593147 056.1902 309.4049 08.68030118393212
1 02377U 63014X   09241.52605621  .00000005  00000-0  10000-3 0  9995
2 02377 087.3498 032.1117 0592891 055.1597 310.3599 08.68030170393302
1 02377U 63014X   09242.44796425 +.00000005 +00000-0 +10000-3 0  9990
2 02377 087.3499 032.0226 0592623 054.2542 311.2005 08.68030289393387
1 02377U 63014X   09242.90891734  .00000005  00000-0  10000-3 0  9990
2 02377 087.3501 031.9786 0592182 053.6907 311.7072 08.68029318393423
1 02377U 63014X   09243.48511354 +.00000005 +00000-0 +10000-3 0  9991
2 02377 087.3512 031.9235 0592126 053.1550 312.2236 08.68030058393477
1 02377U 63014X   09244.29177982  .00000005  00000-0  10000-3 0  9996
2 02377 087.3520 031.8465 0591303 052.2778 313.0216 08.68030100393541
1 02377U 63014X   09244.52225596 +.00000005 +00000-0 +10000-3 0  9997
2 02377 087.3518 031.8242 0591312 052.0924 313.1967 08.68030489393568
1 02377U 63014X   09245.32892296  .00000005  00000-0  10000-3 0  9993
2 02377 087.3499 031.7451 0590991 051.1810 314.0313 08.68030532393635
1 02377U 63014X   09245.44416142 +.00000005 +00000-0 +10000-3 0  9998
2 02377 087.3504 031.7341 0590845 051.0848 314.1212 08.68030592393644
1 02377U 63014X   09246.36606756  .00000005  00000-0  10000-3 0  9992
2 02377 087.3501 031.6450 0590559 050.1389 314.9933 08.68030655393720
1 02377U 63014X   09246.48130514 +.00000005 +00000-0 +10000-3 0  9999
2 02377 087.3509 031.6341 0590365 050.0550 315.0696 08.68030776393734
1 02377U 63014X   09247.40321048  .00000005  00000-0  10000-3 0  9996
2 02377 087.3506 031.5449 0589488 048.9889 316.0444 08.68030789393819
1 02377U 63014X   09248.44035388  .00000005  00000-0  10000-3 0  9990
2 02377 087.3510 031.4453 0588318 047.7756 317.1528 08.68030829393909
1 02377U 63014X   09249.47749665  .00000004  00000-0  10000-3 0  9993
2 02377 087.3516 031.3459 0588091 046.7296 318.1130 08.68030829393995
1 02377U 63014X   09250.51463931  .00000004  00000-0  10000-3 0  9999
2 02377 087.3519 031.2465 0587781 045.6837 319.0724 08.68030786394080
1 02377U 63014X   09251.43654402 +.00000004 +00000-0 +10000-3 0  9996
2 02377 087.3515 031.1570 0587204 044.6568 320.0043 08.68029918394162
1 02377U 63014X   09252.35845005  .00000004  00000-0  10000-3 0  9999
2 02377 087.3510 031.0679 0587024 043.6584 320.9215 08.68029858394245
1 02377U 63014X   09252.47368791 +.00000004 +00000-0 +10000-3 0  9994
2 02377 087.3513 031.0580 0586370 043.5989 320.9757 08.68029762394256
1 02377U 63014X   09253.39558805  .00000004  00000-0  10000-3 0  9993
2 02377 087.3506 030.9677 0585602 042.6072 321.8737 08.68030527394331
1 02377U 63014X   09254.43272851  .00000004  00000-0  10000-3 0  9993
2 02377 087.3526 030.8695 0584929 041.5525 322.8306 08.68030232394420
1 02377U 63014X   09255.46987064  .00000004  00000-0  10000-3 0  9996
2 02377 087.3520 030.7700 0584780 040.3942 323.8847 08.68029743394511
1 02377U 63014X   09256.39177169 +.00000004 +00000-0 +10000-3 0  9996
2 02377 087.3523 030.6809 0583831 039.4363 324.7582 08.68030735394592
1 02377U 63014X   09257.31367235  .00000004  00000-0  10000-3 0  9994
2 02377 087.3525 030.5928 0583666 038.4637 325.6373 08.68030718394672
1 02377U 63014X   09257.42891010 +.00000004 +00000-0 +10000-3 0  9999
2 02377 087.3529 030.5819 0583550 038.3751 325.7182 08.68030739394686
